ONEWEB-0545             
1 54647U 22166F   24235.93837648  .00000016  00000+0  84254-5 0  9991
2 54647  87.9319  16.0426 0001613  80.1402 279.9914 13.21825332 83888
ONEWEB-0580             
1 54648U 22166G   24235.91158084  .00000050  00000+0  90477-4 0  9991
2 54648  87.9328  16.0215 0001974  80.8823 279.2534 13.21825683 83924
ONEWEB-0582             
1 54649U 22166H   24235.95414579  .00000121  00000+0  26214-3 0  9996
2 54649  87.9324  16.0484 0002161  79.0849 281.0528 13.21825789 83905
ONEWEB-0583             
1 54650U 22166J   24235.88948807  .00000078  00000+0  15705-3 0  9990
2 54650  87.9324  16.0603 0001734  93.9313 266.2019 13.21826355 83906
ONEWEB-0584             
1 54651U 22166K   24235.90999064 -.00000002  00000+0 -35607-4 0  9998
2 54651  87.9330  16.0254 0001862  86.0311 274.1036 13.21825578 83890
ONEWEB-0585             
1 54652U 22166L   24235.93522297  .00000012  00000+0 -29362-5 0  9994
2 54652  87.9331  16.0306 0001795  99.2760 260.8577 13.21826392 83908
ONEWEB-0586             
1 54653U 22166M   24235.94782696  .00000073  00000+0  14421-3 0  9991
2 54653  87.9324  16.0389 0001766  88.6567 271.4769 13.21828069 83901
ONEWEB-0587             
1 54654U 22166N   24235.95728787  .00000166  00000+0  37102-3 0  9998
2 54654  87.9323  15.9909 0001710 106.2715 253.8607 13.21828288 84064
